[{"OBJECT_NAME":"STARLINK-3219","OBJECT_ID":"2021-115A","EPOCH":"2026-03-09T10:54:16.926912","MEAN_MOTION":15.08833164,"ECCENTRICITY":0.00013407,"INCLINATION":53.2169,"RA_OF_ASC_NODE":150.4003,"ARG_OF_PERICENTER":84.6463,"MEAN_ANOMALY":275.4683,"EPHEMERIS_TYPE":0,"CLASSIFICATION_TYPE":"U","NORAD_CAT_ID":49724,"ELEMENT_SET_NO":999,"REV_AT_EPOCH":23549,"BSTAR":-1.4905695e-5,"MEAN_MOTION_DOT":-5.25e-6,"MEAN_MOTION_DDOT":0},{"OBJECT_NAME":"OBJECT H","OBJECT_ID":"2017-042H","EPOCH":"2026-03-09T21:54:40.929408","MEAN_MOTION":15.07257911,"ECCENTRICITY":0.00117342,"INCLINATION":97.4058,"RA_OF_ASC_NODE":233.05,"ARG_OF_PERICENTER":93.954,"MEAN_ANOMALY":266.303,"EPHEMERIS_TYPE":0,"CLASSIFICATION_TYPE":"U","NORAD_CAT_ID":42832,"ELEMENT_SET_NO":999,"REV_AT_EPOCH":47198,"BSTAR":0.00041037265,"MEAN_MOTION_DOT":6.138e-5,"MEAN_MOTION_DDOT":0}]
